NORAD_CAT_ID,OBJECT_NAME,OBJECT_TYPE,EPOCH,MEAN_MOTION,ECCENTRICITY,INCLINATION,RA_OF_ASC_NODE,ARG_OF_PERICENTER,MEAN_ANOMALY,BSTAR,MEAN_MOTION_DOT,MEAN_MOTION_DDOT,TLE_LINE0,TLE_LINE1,TLE_LINE2,SEMIMAJOR_AXIS,PERIOD,APOGEE,PERIGEE,DECAYED
53834.0,STARLINK-4737,PAYLOAD,2023-03-21 10:56:56,15.08837566,0.000151,53.2157,131.1048,102.4058,257.7103,9.4808e-05,1.221e-05,0.0,0 STARLINK-4737,1 53834U 22114S   23080.45621344  .00001221  00000-0  94808-4 0  9994,2 53834  53.2157 131.1048 0001510 102.4058 257.7103 15.08837566 29154,6917.888,95.438,540.797,538.708,0.0
53834.0,STARLINK-4737,PAYLOAD,2023-03-21 20:29:15,15.08834929,0.0001272,53.2151,129.3197,95.2218,264.8919,0.00018047,2.585e-05,0.0,0 STARLINK-4737,1 53834U 22114S   23080.85365595  .00002585  00000-0  18047-3 0  9995,2 53834  53.2151 129.3197 0001272  95.2218 264.8919 15.08834929 28674,6917.896,95.438,540.641,538.881,0.0
53834.0,STARLINK-4737,PAYLOAD,2023-03-22 20:20:02,15.08842599,0.0001312,53.216,124.8591,101.4868,258.6272,2.3506e-05,8.6e-07,0.0,0 STARLINK-4737,1 53834U 22114S   23081.84725433  .00000086  00000-0  23506-4 0  9997,2 53834  53.2160 124.8591 0001312 101.4868 258.6272 15.08842599 29360,6917.872,95.437,540.645,538.83,0.0
53834.0,STARLINK-4737,PAYLOAD,2023-03-23 02:41:35,15.08839902,0.0001417,53.2161,123.6689,101.0908,259.0243,0.00010893,1.446e-05,0.0,0 STARLINK-4737,1 53834U 22114S   23082.11221440  .00001446  00000-0  10893-3 0  9992,2 53834  53.2161 123.6689 0001417 101.0908 259.0243 15.08839902 28864,6917.881,95.438,540.726,538.765,0.0
53834.0,STARLINK-4737,PAYLOAD,2023-03-23 09:03:07,15.08845421,0.0001292,53.2161,122.4797,90.9591,269.1549,8.2227e-05,1.021e-05,0.0,0 STARLINK-4737,1 53834U 22114S   23082.37717185  .00001021  00000-0  82227-4 0  9996,2 53834  53.2161 122.4797 0001292  90.9591 269.1549 15.08845421 29445,6917.864,95.437,540.623,538.835,0.0
53834.0,STARLINK-4737,PAYLOAD,2023-03-23 20:10:49,15.08849036,0.0001392,53.216,120.3981,93.8966,266.2186,9.7327e-05,1.262e-05,0.0,0 STARLINK-4737,1 53834U 22114S   23082.84084919  .00001262  00000-0  97327-4 0  9994,2 53834  53.2160 120.3981 0001392  93.8966 266.2186 15.08849036 29514,6917.853,95.437,540.681,538.755,0.0
53834.0,STARLINK-4737,PAYLOAD,2023-03-24 05:43:06,15.08890759,0.0001723,53.2157,118.6149,75.852,284.2663,-0.00051246,-8.446e-05,0.0,0 STARLINK-4737,1 53834U 22114S   23083.23827169 -.00008446  00000-0 -51246-3 0  9992,2 53834  53.2157 118.6149 0001723  75.8520 284.2663 15.08890759 29035,6917.725,95.434,540.782,538.398,0.0
53834.0,STARLINK-4737,PAYLOAD,2023-03-24 08:53:54,15.08855991,0.0001509,53.2153,118.0213,75.3355,284.7804,0.00033719,5.085e-05,0.0,0 STARLINK-4737,1 53834U 22114S   23083.37077161  .00005085  00000-0  33719-3 0  9995,2 53834  53.2153 118.0213 0001509  75.3355 284.7804 15.08855991 29053,6917.832,95.437,540.74,538.653,0.0
53834.0,STARLINK-4737,PAYLOAD,2023-03-25 05:33:56,15.08829393,0.0001182,53.2149,114.1553,83.1864,276.9262,-6.8483e-05,-1.377e-05,0.0,0 STARLINK-4737,1 53834U 22114S   23084.23190520 -.00001377  00000-0 -68483-4 0  9995,2 53834  53.2149 114.1553 0001182  83.1864 276.9262 15.08829393 29183,6917.913,95.438,540.596,538.96,0.0
53834.0,STARLINK-4737,PAYLOAD,2023-03-25 18:17:01,15.08831976,0.0001394,53.2167,111.7732,118.3279,241.7853,2.9243e-05,1.77e-06,0.0,0 STARLINK-4737,1 53834U 22114S   23084.76182527  .00000177  00000-0  29243-4 0  9997,2 53834  53.2167 111.7732 0001394 118.3279 241.7853 15.08831976 29806,6917.905,95.438,540.734,538.806,0.0
53834.0,STARLINK-4737,PAYLOAD,2023-03-26 00:38:34,15.08837112,0.0001288,53.2163,110.5826,119.4974,240.6147,-3.0776e-05,-7.78e-06,0.0,0 STARLINK-4737,1 53834U 22114S   23085.02678374 -.00000778  00000-0 -30776-4 0  9999,2 53834  53.2163 110.5826 0001288 119.4974 240.6147 15.08837112 29306,6917.889,95.438,540.645,538.863,0.0
53834.0,STARLINK-4737,PAYLOAD,2023-03-26 08:35:29,15.08849232,0.0001203,53.2156,109.0969,109.4115,250.7007,0.00018079,2.591e-05,0.0,0 STARLINK-4737,1 53834U 22114S   23085.35797770  .00002591  00000-0  18079-3 0  9991,2 53834  53.2156 109.0969 0001203 109.4115 250.7007 15.08849232 29350,6917.852,95.437,540.549,538.885,0.0
53834.0,STARLINK-4737,PAYLOAD,2023-03-26 18:07:48,15.08842151,0.0001409,53.2169,107.3161,119.6726,240.4407,7.0823e-05,8.39e-06,0.0,0 STARLINK-4737,1 53834U 22114S   23085.75541926  .00000839  00000-0  70823-4 0  9994,2 53834  53.2169 107.3161 0001409 119.6726 240.4407 15.08842151 29957,6917.874,95.437,540.714,538.764,0.0
53834.0,STARLINK-4737,PAYLOAD,2023-03-27 05:15:30,15.0883877,0.0001365,53.2178,105.2327,119.8314,240.2814,0.00018033,2.583e-05,0.0,0 STARLINK-4737,1 53834U 22114S   23086.21910358  .00002583  00000-0  18033-3 0  9997,2 53834  53.2178 105.2327 0001365 119.8314 240.2814 15.08838770 29484,6917.884,95.438,540.693,538.805,0.0
53834.0,STARLINK-4737,PAYLOAD,2023-03-27 06:50:53,15.08839867,0.0001371,53.2177,104.9353,119.4654,240.6475,0.00018645,2.681e-05,0.0,0 STARLINK-4737,1 53834U 22114S   23086.28534309  .00002681  00000-0  18645-3 0  9990,2 53834  53.2177 104.9353 0001371 119.4654 240.6475 15.08839867 30036,6917.881,95.438,540.694,538.797,0.0
53834.0,STARLINK-4737,PAYLOAD,2023-03-27 17:58:35,15.0884203,0.0001285,53.2174,102.8547,121.4111,238.7007,0.00012904,1.766e-05,0.0,0 STARLINK-4737,1 53834U 22114S   23086.74902131  .00001766  00000-0  12904-3 0  9998,2 53834  53.2174 102.8547 0001285 121.4111 238.7007 15.08842030 30103,6917.874,95.437,540.628,538.85,0.0
53834.0,STARLINK-4737,PAYLOAD,2023-03-28 05:06:17,15.08840293,0.0001418,53.2192,100.7736,120.5112,239.602,-7.1142e-06,-4.01e-06,0.0,0 STARLINK-4737,1 53834U 22114S   23087.21270826 -.00000401  00000-0 -71142-5 0  9998,2 53834  53.2192 100.7736 0001418 120.5112 239.6020 15.08840293 29639,6917.879,95.438,540.725,538.764,0.0
53834.0,STARLINK-4737,PAYLOAD,2023-03-28 08:17:04,15.08840991,0.0001591,53.2191,100.1787,117.9517,242.1636,1.1899e-05,-9.9e-07,0.0,0 STARLINK-4737,1 53834U 22114S   23087.34518733 -.00000099  00000-0  11899-4 0  9998,2 53834  53.2191 100.1787 0001591 117.9517 242.1636 15.08840991 30199,6917.877,95.437,540.843,538.642,0.0
53834.0,STARLINK-4737,PAYLOAD,2023-03-29 00:10:54,15.08851006,0.0001594,53.2194,97.2064,109.705,250.4114,4.612e-05,4.46e-06,0.0,0 STARLINK-4737,1 53834U 22114S   23088.00758013  .00000446  00000-0  46120-4 0  9999,2 53834  53.2194  97.2064 0001594 109.7050 250.4114 15.08851006 29752,6917.847,95.437,540.814,538.609,0.0
53834.0,STARLINK-4737,PAYLOAD,2023-03-29 06:32:27,15.08837044,8.26e-05,53.2181,96.0146,135.3818,224.7241,0.00027628,4.112e-05,0.0,0 STARLINK-4737,1 53834U 22114S   23088.27254458  .00004112  00000-0  27628-3 0  9997,2 53834  53.2181  96.0146 0000826 135.3818 224.7241 15.08837044 29795,6917.889,95.438,540.326,539.183,0.0
53834.0,STARLINK-4737,PAYLOAD,2023-03-29 08:07:50,15.08849811,0.0001267,53.2178,95.7164,110.1358,249.9771,0.00015285,2.146e-05,0.0,0 STARLINK-4737,1 53834U 22114S   23088.33877865  .00002146  00000-0  15285-3 0  9998,2 53834  53.2178  95.7164 0001267 110.1358 249.9771 15.08849811 29801,6917.85,95.437,540.592,538.839,0.0
53834.0,STARLINK-4737,PAYLOAD,2023-03-29 17:40:09,15.08841845,0.000134,53.2168,93.9339,87.7192,272.3954,8.8579e-05,1.122e-05,0.0,0 STARLINK-4737,1 53834U 22114S   23088.73622370  .00001122  00000-0  88579-4 0  9991,2 53834  53.2168  93.9339 0001340  87.7192 272.3954 15.08841845 29869,6917.875,95.437,540.667,538.813,0.0
53834.0,STARLINK-4737,PAYLOAD,2023-03-30 09:34:00,15.08846047,0.0001112,53.2168,90.959,96.3417,263.7702,0.00018617,2.677e-05,0.0,0 STARLINK-4737,1 53834U 22114S   23089.39862234  .00002677  00000-0  18617-3 0  9990,2 53834  53.2168  90.9590 0001112  96.3417 263.7702 15.08846047 30505,6917.862,95.437,540.496,538.958,0.0
53834.0,STARLINK-4737,PAYLOAD,2023-03-31 06:14:01,15.08842034,7e-05,53.2174,87.0943,74.8371,285.2698,0.00010757,1.425e-05,0.0,0 STARLINK-4737,1 53834U 22114S   23090.25974478  .00001425  00000-0  10757-3 0  9998,2 53834  53.2174  87.0943 0000700  74.8371 285.2698 15.08842034 30092,6917.874,95.437,540.223,539.255,0.0
53834.0,STARLINK-4737,PAYLOAD,2023-03-31 09:24:47,15.0885336,0.0001198,53.2168,86.4982,97.559,262.5538,0.00024747,3.654e-05,0.0,0 STARLINK-4737,1 53834U 22114S   23090.39222043  .00003654  00000-0  24747-3 0  9997,2 53834  53.2168  86.4982 0001198  97.5590 262.5538 15.08853360 30116,6917.84,95.437,540.533,538.876,0.0
53834.0,STARLINK-4737,PAYLOAD,2023-04-01 06:04:49,15.08840237,0.0001176,53.2155,82.632,100.833,259.2795,0.00014061,1.951e-05,0.0,0 STARLINK-4737,1 53834U 22114S   23091.25334724  .00001951  00000-0  14061-3 0  9999,2 53834  53.2155  82.6320 0001176 100.8330 259.2795 15.08840237 30243,6917.88,95.438,540.558,538.931,0.0
53834.0,STARLINK-4737,PAYLOAD,2023-04-01 09:15:35,15.08842061,0.0001274,53.2158,82.0368,104.2564,255.857,0.00012592,1.717e-05,0.0,0 STARLINK-4737,1 53834U 22114S   23091.38582636  .00001717  00000-0  12592-3 0  9997,2 53834  53.2158  82.0368 0001274 104.2564 255.8570 15.08842061 30800,6917.874,95.437,540.62,538.858,0.0
53834.0,STARLINK-4737,PAYLOAD,2023-04-02 07:30:59,15.08844298,0.0001283,53.2167,77.8773,100.6391,259.4745,-5.1199e-06,-3.69e-06,0.0,0 STARLINK-4737,1 53834U 22114S   23092.31318596 -.00000369  00000-0 -51199-5 0  9995,2 53834  53.2167  77.8773 0001283 100.6391 259.4745 15.08844298 30404,6917.867,95.437,540.62,538.845,0.0
53834.0,STARLINK-4737,PAYLOAD,2023-04-02 15:27:55,15.0884045,0.0001293,53.2168,76.389,98.9467,261.1672,-9.5861e-06,-4.4e-06,0.0,0 STARLINK-4737,1 53834U 22114S   23092.64438796 -.00000440  00000-0 -95861-5 0  9990,2 53834  53.2168  76.3890 0001293  98.9467 261.1672 15.08840450 30992,6917.879,95.438,540.638,538.85,0.0
53834.0,STARLINK-4737,PAYLOAD,2023-04-03 07:21:46,15.08844147,0.0001306,53.2175,73.416,105.5326,254.581,0.00015883,2.241e-05,0.0,0 STARLINK-4737,1 53834U 22114S   23093.30678777  .00002241  00000-0  15883-3 0  9992,2 53834  53.2175  73.4160 0001306 105.5326 254.5810 15.08844147 31091,6917.868,95.437,540.636,538.829,0.0
